$$SOE
2460147.500000000, A.D. 2023-Jul-22 00:00:00.0000, -6.816156986962729E+09, -3.039195838586374E+09, 2.180620782190075E+09,
2460154.500000000, A.D. 2023-Jul-29 00:00:00.0000, -6.814915869552391E+09, -3.040686304742927E+09, 2.181918649601424E+09,
2460161.500000000, A.D. 2023-Aug-05 00:00:00.0000, -6.813674131756624E+09, -3.042176482039623E+09, 2.183216293734844E+09,
2460168.500000000, A.D. 2023-Aug-12 00:00:00.0000, -6.812431775963490E+09, -3.043666372269656E+09, 2.184513714593519E+09,
2460175.500000000, A.D. 2023-Aug-19 00:00:00.0000, -6.811188804256284E+09, -3.045155977714871E+09, 2.185810912150438E+09,
2460182.500000000, A.D. 2023-Aug-26 00:00:00.0000, -6.809945218412791E+09, -3.046645301055769E+09, 2.187107886354475E+09,
2460189.500000000, A.D. 2023-Sep-02 00:00:00.0000, -6.808701019927538E+09, -3.048134345352820E+09, 2.188404637131804E+09,
2460196.500000000, A.D. 2023-Sep-09 00:00:00.0000, -6.807456210020425E+09, -3.049623114140317E+09, 2.189701164375963E+09,
2460203.500000000, A.D. 2023-Sep-16 00:00:00.0000, -6.806210789463298E+09, -3.051111611690763E+09, 2.190997467906416E+09,
2460210.500000000, A.D. 2023-Sep-23 00:00:00.0000, -6.804964757808071E+09, -3.052599843163014E+09, 2.192293547380942E+09,
2460217.500000000, A.D. 2023-Sep-30 00:00:00.0000, -6.803718112355950E+09, -3.054087813443470E+09, 2.193589402290390E+09,
2460224.500000000, A.D. 2023-Oct-07 00:00:00.0000, -6.802470849221498E+09, -3.055575525223098E+09, 2.194885032207465E+09,
2460231.500000000, A.D. 2023-Oct-14 00:00:00.0000, -6.801222965451653E+09, -3.057062979623523E+09, 2.196180436923577E+09,
2460238.500000000, A.D. 2023-Oct-21 00:00:00.0000, -6.799974458971084E+09, -3.058550177769387E+09, 2.197475616308765E+09,
2460245.500000000, A.D. 2023-Oct-28 00:00:00.0000, -6.798725327778251E+09, -3.060037121046927E+09, 2.198770570210292E+09,
2460252.500000000, A.D. 2023-Nov-04 00:00:00.0000, -6.797475569642191E+09, -3.061523810819110E+09, 2.200065298441852E+09,
2460259.500000000, A.D. 2023-Nov-11 00:00:00.0000, -6.796225182122476E+09, -3.063010248197229E+09, 2.201359800798348E+09,
2460266.500000000, A.D. 2023-Nov-18 00:00:00.0000, -6.794974162692831E+09, -3.064496433933263E+09, 2.202654077071104E+09,
2460273.500000000, A.D. 2023-Nov-25 00:00:00.0000, -6.793722508895594E+09, -3.065982368410434E+09, 2.203948127058894E+09,
2460280.500000000, A.D. 2023-Dec-02 00:00:00.0000, -6.792470218498833E+09, -3.067468051743164E+09, 2.205241950571478E+09,
2460287.500000000, A.D. 2023-Dec-09 00:00:00.0000, -6.791217289578292E+09, -3.068953484045340E+09, 2.206535547413793E+09,
2460294.500000000, A.D. 2023-Dec-16 00:00:00.0000, -6.789963720236619E+09, -3.070438665854327E+09, 2.207828917325500E+09,
2460301.500000000, A.D. 2023-Dec-23 00:00:00.0000, -6.788709507611422E+09, -3.071923598023273E+09, 2.209122059900056E+09,
2460308.500000000, A.D. 2023-Dec-30 00:00:00.0000, -6.787454647512369E+09, -3.073408280032466E+09, 2.210414974691873E+09,
2460315.500000000, A.D. 2024-Jan-06 00:00:00.0000, -6.786199136459811E+09, -3.074892709080447E+09, 2.211707661481049E+09,
2460322.500000000, A.D. 2024-Jan-13 00:00:00.0000, -6.784942972952141E+09, -3.076376881761785E+09, 2.213000120256758E+09,
2460329.500000000, A.D. 2024-Jan-20 00:00:00.0000, -6.783686156738358E+09, -3.077860795246944E+09, 2.214292351058920E+09,
2460336.500000000, A.D. 2024-Jan-27 00:00:00.0000, -6.782428688124573E+09, -3.079344447312044E+09, 2.215584353917254E+09,
2460343.500000000, A.D. 2024-Feb-03 00:00:00.0000, -6.781170567742829E+09, -3.080827836167104E+09, 2.216876128849266E+09,
2460350.500000000, A.D. 2024-Feb-10 00:00:00.0000, -6.779911796504851E+09, -3.082310960373935E+09, 2.218167675867728E+09,
2460357.500000000, A.D. 2024-Feb-17 00:00:00.0000, -6.778652375602061E+09, -3.083793818845715E+09, 2.219458994985384E+09,
2460364.500000000, A.D. 2024-Feb-24 00:00:00.0000, -6.777392306515890E+09, -3.085276410913478E+09, 2.220750086214663E+09,
2460371.500000000, A.D. 2024-Mar-02 00:00:00.0000, -6.776131591009055E+09, -3.086758736492030E+09, 2.222040949556928E+09,
2460378.500000000, A.D. 2024-Mar-09 00:00:00.0000, -6.774870230959000E+09, -3.088240796408145E+09, 2.223331584963330E+09,
2460385.500000000, A.D. 2024-Mar-16 00:00:00.0000, -6.773608227638159E+09, -3.089722592693787E+09, 2.224621992247056E+09,
2460392.500000000, A.D. 2024-Mar-23 00:00:00.0000, -6.772345580544676E+09, -3.091204127735301E+09, 2.225912171047077E+09,
2460399.500000000, A.D. 2024-Mar-30 00:00:00.0000, -6.771082288024672E+09, -3.092685402305377E+09, 2.227202121046754E+09,
2460406.500000000, A.D. 2024-Apr-06 00:00:00.0000, -6.769818349430054E+09, -3.094166415845391E+09, 2.228491842148598E+09,
2460413.500000000, A.D. 2024-Apr-13 00:00:00.0000, -6.768553765260743E+09, -3.095647168161703E+09, 2.229781334347816E+09,
2460420.500000000, A.D. 2024-Apr-20 00:00:00.0000, -6.767288536243442E+09, -3.097127659859254E+09, 2.231070597610744E+09,
2460427.500000000, A.D. 2024-Apr-27 00:00:00.0000, -6.766022662863972E+09, -3.098607892073848E+09, 2.232359631851461E+09,
2460434.500000000, A.D. 2024-May-04 00:00:00.0000, -6.764756145265283E+09, -3.100087866206410E+09, 2.233648436941103E+09,
2460441.500000000, A.D. 2024-May-11 00:00:00.0000, -6.763488983272766E+09, -3.101567583760855E+09, 2.234937012719808E+09,
2460448.500000000, A.D. 2024-May-18 00:00:00.0000, -6.762221176464902E+09, -3.103047046263667E+09, 2.236225359005655E+09,
2460455.500000000, A.D. 2024-May-25 00:00:00.0000, -6.760952724264512E+09, -3.104526255271993E+09, 2.237513475597957E+09,
2460462.500000000, A.D. 2024-Jun-01 00:00:00.0000, -6.759683625990797E+09, -3.106005212527359E+09, 2.238801362264918E+09,
2460469.500000000, A.D. 2024-Jun-08 00:00:00.0000, -6.758413880625746E+09, -3.107483920277645E+09, 2.240089018691436E+09,
2460476.500000000, A.D. 2024-Jun-15 00:00:00.0000, -6.757143485895448E+09, -3.108962381221964E+09, 2.241376444395229E+09,
2460483.500000000, A.D. 2024-Jun-22 00:00:00.0000, -6.755872437671506E+09, -3.110440596903054E+09, 2.242663638799767E+09,
2460490.500000000, A.D. 2024-Jun-29 00:00:00.0000, -6.754600731814170E+09, -3.111918566367811E+09, 2.243950601510090E+09,
2460497.500000000, A.D. 2024-Jul-06 00:00:00.0000, -6.753328365812202E+09, -3.113396287566915E+09, 2.245237332347168E+09,
2460504.500000000, A.D. 2024-Jul-13 00:00:00.0000, -6.752055338270215E+09, -3.114873758669371E+09, 2.246523831192975E+09,
2460511.500000000, A.D. 2024-Jul-20 00:00:00.0000, -6.750781648229146E+09, -3.116350978143206E+09, 2.247810097922354E+09,
2460518.500000000, A.D. 2024-Jul-27 00:00:00.0000, -6.749507294975841E+09, -3.117827944561745E+09, 2.249096132403460E+09,
2460525.500000000, A.D. 2024-Aug-03 00:00:00.0000, -6.748232278068855E+09, -3.119304656510317E+09, 2.250381934511031E+09,
2460532.500000000, A.D. 2024-Aug-10 00:00:00.0000, -6.746956597414646E+09, -3.120781112597651E+09, 2.251667504136773E+09,
2460539.500000000, A.D. 2024-Aug-17 00:00:00.0000, -6.745680253346882E+09, -3.122257311549960E+09, 2.252952841194098E+09,
2460546.500000000, A.D. 2024-Aug-24 00:00:00.0000, -6.744403246680982E+09, -3.123733252409583E+09, 2.254237945612619E+09,
2460553.500000000, A.D. 2024-Aug-31 00:00:00.0000, -6.743125578628300E+09, -3.125208934899331E+09, 2.255522817306490E+09,
2460560.500000000, A.D. 2024-Sep-07 00:00:00.0000, -6.741847250204443E+09, -3.126684359825782E+09, 2.256807456093158E+09,
2460567.500000000, A.D. 2024-Sep-14 00:00:00.0000, -6.740568261046469E+09, -3.128159528525364E+09, 2.258091861635832E+09,
2460574.500000000, A.D. 2024-Sep-21 00:00:00.0000, -6.739288609667811E+09, -3.129634440940408E+09, 2.259376033629258E+09,
2460581.500000000, A.D. 2024-Sep-28 00:00:00.0000, -6.738008295638402E+09, -3.131109095552649E+09, 2.260659972009562E+09,
2460588.500000000, A.D. 2024-Oct-05 00:00:00.0000, -6.736727320020321E+09, -3.132583491172358E+09, 2.261943676851576E+09,
2460595.500000000, A.D. 2024-Oct-12 00:00:00.0000, -6.735445684419567E+09, -3.134057627602879E+09, 2.263227148230150E+09,
2460602.500000000, A.D. 2024-Oct-19 00:00:00.0000, -6.734163390404883E+09, -3.135531505451238E+09, 2.264510386183870E+09,
2460609.500000000, A.D. 2024-Oct-26 00:00:00.0000, -6.732880439325975E+09, -3.137005125886043E+09, 2.265793390718653E+09,
2460616.500000000, A.D. 2024-Nov-02 00:00:00.0000, -6.731596832273694E+09, -3.138478490490807E+09, 2.267076161815468E+09,
2460623.500000000, A.D. 2024-Nov-09 00:00:00.0000, -6.730312570085433E+09, -3.139951601191723E+09, 2.268358699435078E+09,
2460630.500000000, A.D. 2024-Nov-16 00:00:00.0000, -6.729027653369698E+09, -3.141424460259334E+09, 2.269641003517468E+09,
2460637.500000000, A.D. 2024-Nov-23 00:00:00.0000, -6.727742082502759E+09, -3.142897070433703E+09, 2.270923073967661E+09,
2460644.500000000, A.D. 2024-Nov-30 00:00:00.0000, -6.726455857388963E+09, -3.144369435215490E+09, 2.272204910605398E+09,
2460651.500000000, A.D. 2024-Dec-07 00:00:00.0000, -6.725168976565139E+09, -3.145841558902080E+09, 2.273486513074700E+09,
2460658.500000000, A.D. 2024-Dec-14 00:00:00.0000, -6.723881436337681E+09, -3.147313445144608E+09, 2.274767880876616E+09,
2460665.500000000, A.D. 2024-Dec-21 00:00:00.0000, -6.722593232270721E+09, -3.148785095266521E+09, 2.276049013636558E+09,
2460672.500000000, A.D. 2024-Dec-28 00:00:00.0000, -6.721304361052941E+09, -3.150256509310937E+09, 2.277329911183008E+09,
2460679.500000000, A.D. 2025-Jan-04 00:00:00.0000, -6.720014820145689E+09, -3.151727687440506E+09, 2.278610573393748E+09,
2460686.500000000, A.D. 2025-Jan-11 00:00:00.0000, -6.718724607033591E+09, -3.153198630029956E+09, 2.279891000112538E+09,
2460693.500000000, A.D. 2025-Jan-18 00:00:00.0000, -6.717433718994469E+09, -3.154669337370047E+09, 2.281171191145523E+09,
2460700.500000000, A.D. 2025-Jan-25 00:00:00.0000, -6.716142153144936E+09, -3.156139809457491E+09, 2.282451146276510E+09,
2460707.500000000, A.D. 2025-Feb-01 00:00:00.0000, -6.714849906572052E+09, -3.157610045900970E+09, 2.283730865281531E+09,
$$EOE